{
  "type": "FeatureCollection",
  "features": [
    {
      "type": "Feature",
      "properties": {
        "norad_id": 27954,
        "name": "GALAXY 13 (HORIZONS-1)",
        "group": "intelsat",
        "lat": 0.6534402133873802,
        "lon": 131.60630370318472,
        "alt_km": 35789.67078595366,
        "timestamp": "2025-12-04T13:52:00.115474+00:00",
        "meta_object_name": "GALAXY 13 (HORIZONS-1)",
        "meta_object_id": "2003-044A",
        "meta_epoch": "2025-12-04T06:09:52.133760",
        "meta_mean_motion": 1.00272905,
        "meta_eccentricity": 0.00020669,
        "meta_inclination": 0.9136,
        "meta_ra_of_asc_node": 86.5773,
        "meta_arg_of_pericenter": 162.365,
        "meta_mean_anomaly": 126.8573,
        "meta_ephemeris_type": 0,
        "meta_classification_type": "U",
        "meta_norad_cat_id": 27954,
        "meta_element_set_no": 999,
        "meta_rev_at_epoch": 4461,
        "meta_bstar": 0,
        "meta_mean_motion_dot": 1.48e-06,
        "meta_mean_motion_ddot": 0,
        "tle_line1": "1 27954U 03044A   25338.25685340  .00000148  00000+0  00000+0 0  9993",
        "tle_line2": "2 27954   0.9136  86.5773 0002066 162.3650 126.8573  1.00272905 44614"
      },
      "geometry": {
        "type": "Point",
        "coordinates": [
          131.60630370318472,
          0.6534402133873802
        ]
      }
    },
    {
      "type": "Feature",
      "properties": {
        "norad_id": 28358,
        "name": "INTELSAT 10-02",
        "group": "intelsat",
        "lat": -0.026893836538016667,
        "lon": -79.36395339253602,
        "alt_km": 35781.79471387301,
        "timestamp": "2025-12-04T13:52:00.115486+00:00",
        "meta_object_name": "INTELSAT 10-02",
        "meta_object_id": "2004-022A",
        "meta_epoch": "2025-12-04T05:09:41.933088",
        "meta_mean_motion": 1.00270514,
        "meta_eccentricity": 0.00010974,
        "meta_inclination": 0.039,
        "meta_ra_of_asc_node": 80.5957,
        "meta_arg_of_pericenter": 197.6541,
        "meta_mean_anomaly": 231.4749,
        "meta_ephemeris_type": 0,
        "meta_classification_type": "U",
        "meta_norad_cat_id": 28358,
        "meta_element_set_no": 999,
        "meta_rev_at_epoch": 7860,
        "meta_bstar": 0,
        "meta_mean_motion_dot": 5e-08,
        "meta_mean_motion_ddot": 0,
        "tle_line1": "1 28358U 04022A   25338.21506867  .00000005  00000+0  00000+0 0  9993",
        "tle_line2": "2 28358   0.0390  80.5957 0001097 197.6541 231.4749  1.00270514 78605"
      },
      "geometry": {
        "type": "Point",
        "coordinates": [
          -79.36395339253602,
          -0.026893836538016667
        ]
      }
    },
    {
      "type": "Feature",
      "properties": {
        "norad_id": 28626,
        "name": "XM-3 (RHYTHM)",
        "group": "intelsat",
        "lat": 0.01110298617045065,
        "lon": 74.67624440370295,
        "alt_km": 36159.526827073634,
        "timestamp": "2025-12-04T13:52:00.115499+00:00",
        "meta_object_name": "XM-3 (RHYTHM)",
        "meta_object_id": "2005-008A",
        "meta_epoch": "2025-12-04T05:54:00.188064",
        "meta_mean_motion": 0.98954927,
        "meta_eccentricity": 9.775e-05,
        "meta_inclination": 0.1512,
        "meta_ra_of_asc_node": 80.896,
        "meta_arg_of_pericenter": 261.3261,
        "meta_mean_anomaly": 334.211,
        "meta_ephemeris_type": 0,
        "meta_classification_type": "U",
        "meta_norad_cat_id": 28626,
        "meta_element_set_no": 999,
        "meta_rev_at_epoch": 4066,
        "meta_bstar": 0,
        "meta_mean_motion_dot": -2.53e-06,
        "meta_mean_motion_ddot": 0,
        "tle_line1": "1 28626U 05008A   25338.24583551 -.00000253  00000+0  00000+0 0  9990",
        "tle_line2": "2 28626   0.1512  80.8960 0000977 261.3261 334.2110  0.98954927 40663"
      },
      "geometry": {
        "type": "Point",
        "coordinates": [
          74.67624440370295,
          0.01110298617045065
        ]
      }
    },
    {
      "type": "Feature",
      "properties": {
        "norad_id": 28659,
        "name": "DIRECTV 8",
        "group": "intelsat",
        "lat": -0.015656147394826254,
        "lon": 162.55283458037317,
        "alt_km": 35783.14296181968,
        "timestamp": "2025-12-04T13:52:00.115511+00:00",
        "meta_object_name": "DIRECTV 8",
        "meta_object_id": "2005-019A",
        "meta_epoch": "2025-12-04T06:18:43.784928",
        "meta_mean_motion": 1.00277091,
        "meta_eccentricity": 0.00033893,
        "meta_inclination": 0.017,
        "meta_ra_of_asc_node": 320.346,
        "meta_arg_of_pericenter": 286.4136,
        "meta_mean_anomaly": 162.2188,
        "meta_ephemeris_type": 0,
        "meta_classification_type": "U",
        "meta_norad_cat_id": 28659,
        "meta_element_set_no": 999,
        "meta_rev_at_epoch": 7511,
        "meta_bstar": 0,
        "meta_mean_motion_dot": 1.6e-07,
        "meta_mean_motion_ddot": 0,
        "tle_line1": "1 28659U 05019A   25338.26300677  .00000016  00000+0  00000+0 0  9992",
        "tle_line2": "2 28659   0.0170 320.3460 0003389 286.4136 162.2188  1.00277091 75110"
      },
      "geometry": {
        "type": "Point",
        "coordinates": [
          162.55283458037317,
          -0.015656147394826254
        ]
      }
    },
    {
      "type": "Feature",
      "properties": {
        "norad_id": 28702,
        "name": "GALAXY 28 (G-28)",
        "group": "intelsat",
        "lat": 2.5836221856387893,
        "lon": -167.06419269534095,
        "alt_km": 35779.983693515074,
        "timestamp": "2025-12-04T13:52:00.115522+00:00",
        "meta_object_name": "GALAXY 28 (G-28)",
        "meta_object_id": "2005-022A",
        "meta_epoch": "2025-12-04T06:27:20.460384",
        "meta_mean_motion": 1.00272167,
        "meta_eccentricity": 0.00026418,
        "meta_inclination": 2.797,
        "meta_ra_of_asc_node": 81.3802,
        "meta_arg_of_pericenter": 171.0874,
        "meta_mean_anomaly": 189.0166,
        "meta_ephemeris_type": 0,
        "meta_classification_type": "U",
        "meta_norad_cat_id": 28702,
        "meta_element_set_no": 999,
        "meta_rev_at_epoch": 5002,
        "meta_bstar": 0,
        "meta_mean_motion_dot": -1.73e-06,
        "meta_mean_motion_ddot": 0,
        "tle_line1": "1 28702U 05022A   25338.26898681 -.00000173  00000+0  00000+0 0  9997",
        "tle_line2": "2 28702   2.7970  81.3802 0002641 171.0874 189.0166  1.00272167 50023"
      },
      "geometry": {
        "type": "Point",
        "coordinates": [
          -167.06419269534095,
          2.5836221856387893
        ]
      }
    },
    {
      "type": "Feature",
      "properties": {
        "norad_id": 29236,
        "name": "GALAXY 16 (G-16)",
        "group": "intelsat",
        "lat": -0.015335938169739832,
        "lon": -177.41278772651336,
        "alt_km": 35782.67741258822,
        "timestamp": "2025-12-04T13:52:00.115534+00:00",
        "meta_object_name": "GALAXY 16 (G-16)",
        "meta_object_id": "2006-023A",
        "meta_epoch": "2025-12-04T06:24:28.234944",
        "meta_mean_motion": 1.00271134,
        "meta_eccentricity": 0.00029567,
        "meta_inclination": 0.0258,
        "meta_ra_of_asc_node": 212.498,
        "meta_arg_of_pericenter": 43.457,
        "meta_mean_anomaly": 174.4974,
        "meta_ephemeris_type": 0,
        "meta_classification_type": "U",
        "meta_norad_cat_id": 29236,
        "meta_element_set_no": 999,
        "meta_rev_at_epoch": 7101,
        "meta_bstar": 0,
        "meta_mean_motion_dot": -1.11e-06,
        "meta_mean_motion_ddot": 0,
        "tle_line1": "1 29236U 06023A   25338.26699346 -.00000111  00000+0  00000+0 0  9991",
        "tle_line2": "2 29236   0.0258 212.4980 0002956  43.4570 174.4974  1.00271134 71014"
      },
      "geometry": {
        "type": "Point",
        "coordinates": [
          -177.41278772651336,
          -0.015335938169739832
        ]
      }
    },
    {
      "type": "Feature",
      "properties": {
        "norad_id": 29494,
        "name": "DIRECTV 9S",
        "group": "intelsat",
        "lat": 1.8881023187686041,
        "lon": -179.6057868521115,
        "alt_km": 35782.118133195974,
        "timestamp": "2025-12-04T13:52:00.115546+00:00",
        "meta_object_name": "DIRECTV 9S",
        "meta_object_id": "2006-043A",
        "meta_epoch": "2025-12-04T06:23:50.795232",
        "meta_mean_motion": 1.00270534,
        "meta_eccentricity": 0.00032372,
        "meta_inclination": 1.9168,
        "meta_ra_of_asc_node": 83.3004,
        "meta_arg_of_pericenter": 169.838,
        "meta_mean_anomaly": 174.9605,
        "meta_ephemeris_type": 0,
        "meta_classification_type": "U",
        "meta_norad_cat_id": 29494,
        "meta_element_set_no": 999,
        "meta_rev_at_epoch": 4942,
        "meta_bstar": 0,
        "meta_mean_motion_dot": -9.8e-07,
        "meta_mean_motion_ddot": 0,
        "tle_line1": "1 29494U 06043A   25338.26656013 -.00000098  00000+0  00000+0 0  9997",
        "tle_line2": "2 29494   1.9168  83.3004 0003237 169.8380 174.9605  1.00270534 49426"
      },
      "geometry": {
        "type": "Point",
        "coordinates": [
          -179.6057868521115,
          1.8881023187686041
        ]
      }
    }
  ]
}